AOR-E (EGNOS/PRN 120)   
1 24307U 96053A   19068.44113010 -.00000287  00000-0  00000+0 0  9994
2 24307   3.9181  74.5168 0007443 276.8604 287.6965  0.99996321 82384
CRE (WAAS/PRN 138)      
1 28868U 05036A   19067.65365372 -.00000081  00000-0  00000+0 0  9995
2 28868   0.0137  86.6424 0002729 283.1455 284.2603  1.00272026 49506
CRW (WAAS/PRN 135)      
1 28884U 05041A   19068.11785495  .00000073  00000-0  00000+0 0  9993
2 28884   0.0379 270.3541 0001851  79.4037  86.1565  1.00271928 48988
IOR-W (EGNOS/PRN 126)   
1 28899U 05044A   19068.53490868  .00000007  00000-0  00000+0 0  9992
2 28899   2.7919  23.9071 0002992 345.5203  53.9544  1.00272669 48861
MTSAT-2 (MSAS/PRN 137)  
1 28937U 06004A   19067.99146419 -.00000249  00000-0  00000+0 0  9990
2 28937   0.0461 291.4184 0003563  54.1915 322.6789  1.00274392 47706
QZS-1 (QZSS/PRN 183)    
1 37158U 10045A   19067.55163422 -.00000195  00000-0  00000+0 0  9990
2 37158  41.2513 150.2456 0761971 270.7453  76.5379  1.00250442 31069
GSAT-8 (GAGAN/PRN 127)  
1 37605U 11022A   19068.17427556  .00000079  00000-0  00000+0 0  9993
2 37605   0.0134 150.7906 0006386 139.3534 354.2142  1.00273389 28598
LUCH 5A (SDCM/PRN 140)  
1 37951U 11074B   19068.84242478 -.00000060  00000-0  00000+0 0  9997
2 37951   2.2930 133.1769 0003667 220.5802 282.5532  1.00271243 26559
SES-5 (EGNOS/PRN 136)   
1 38652U 12036A   19068.81032197  .00000029  00000-0  00000+0 0  9991
2 38652   0.0201 135.7576 0001806 213.9659 114.1544  1.00272638 24435
GSAT-10 (GAGAN/PRN 128) 
1 38779U 12051B   19067.89285557 -.00000171  00000-0  00000-0 0  9995
2 38779   0.0205 177.8918 0000980 205.4627 187.3307  1.00270125 23470
LUCH 5B (SDCM/PRN 125)  
1 38977U 12061A   19066.22170834 -.00000139  00000-0  00000+0 0  9996
2 38977   4.7979  70.5403 0006384 295.3976 222.1754  1.00271274 23511
ASTRA 5B (EGNOS/PRN 123)
1 39617U 14011B   19068.74384823  .00000150  00000-0  00000+0 0  9991
2 39617   0.0341 337.3755 0002689   3.5146 125.5429  1.00275495 18238
LUCH 5V (SDCM/PRN 141)  
1 39727U 14023A   19068.11033163 -.00000275  00000-0  00000+0 0  9994
2 39727   1.4253 301.9274 0003559  77.3197 281.6931  1.00271127535876
GSAT-15 (GAGAN/PRN 139) 
1 41028U 15065A   19068.49662663 -.00000263  00000-0  00000+0 0  9999
2 41028   0.0486 259.3931 0001458  99.1200  80.6301  1.00271745 12228
E 117 W B (WAAS/PRN 131)
1 41589U 16038B   19068.35860421 -.00000017  00000-0  00000+0 0  9996
2 41589   0.0088 336.3949 0000234   7.9368 194.5012  1.00272285 10060
QZS-2 (QZSS/PRN 184)    
1 42738U 17028A   19067.90579749 -.00000146  00000-0  00000+0 0  9996
2 42738  43.7655 280.9051 0743620 270.6222  80.9568  1.00266313  6491
